NORAD_CAT_ID,OBJECT_NAME,OBJECT_TYPE,EPOCH,MEAN_MOTION,ECCENTRICITY,INCLINATION,RA_OF_ASC_NODE,ARG_OF_PERICENTER,MEAN_ANOMALY,BSTAR,MEAN_MOTION_DOT,MEAN_MOTION_DDOT,TLE_LINE0,TLE_LINE1,TLE_LINE2,SEMIMAJOR_AXIS,PERIOD,APOGEE,PERIGEE,DECAYED
53730.0,STARLINK-4641,PAYLOAD,2023-05-09 13:25:38,15.08785662,8.84e-05,53.2156,221.0357,72.1641,287.9448,0.00084055,0.00013095,0.0,0 STARLINK-4641,1 53730U 22107AG  23129.55947781  .00013095  00000-0  84055-3 0  9996,2 53730  53.2156 221.0357 0000884  72.1641 287.9448 15.08785662 38284,6918.046,95.441,540.523,539.3,0.0
53730.0,STARLINK-4641,PAYLOAD,2023-05-10 11:41:02,15.08834176,6.89e-05,53.2166,216.8727,89.5004,270.6067,8.7321e-06,-1.49e-06,0.0,0 STARLINK-4641,1 53730U 22107AG  23130.48683761 -.00000149  00000-0  87321-5 0  9993,2 53730  53.2166 216.8727 0000689  89.5004 270.6067 15.08834176 38423,6917.898,95.438,540.24,539.287,0.0
53730.0,STARLINK-4641,PAYLOAD,2023-05-10 13:16:25,15.08836587,7.05e-05,53.2163,216.5749,85.6333,274.4739,2.3591e-05,8.8e-07,0.0,0 STARLINK-4641,1 53730U 22107AG  23130.55307576  .00000088  00000-0  23591-4 0  9997,2 53730  53.2163 216.5749 0000705  85.6333 274.4739 15.08836587 38439,6917.891,95.438,540.244,539.268,0.0
53730.0,STARLINK-4641,PAYLOAD,2023-05-11 09:56:26,15.08834353,8.52e-05,53.2169,212.7077,112.0848,248.0235,0.00020351,2.952e-05,0.0,0 STARLINK-4641,1 53730U 22107AG  23131.41419033  .00002952  00000-0  20351-3 0  9997,2 53730  53.2169 212.7077 0000852 112.0848 248.0235 15.08834353 38567,6917.898,95.438,540.352,539.173,0.0
53730.0,STARLINK-4641,PAYLOAD,2023-05-11 13:07:11,15.08851087,6.76e-05,53.2162,212.1132,71.1854,288.9211,6.4545e-05,7.4e-06,0.0,0 STARLINK-4641,1 53730U 22107AG  23131.54666551  .00000740  00000-0  64545-4 0  9997,2 53730  53.2162 212.1132 0000676  71.1854 288.9211 15.08851087 37987,6917.847,95.437,540.179,539.244,0.0
53730.0,STARLINK-4641,PAYLOAD,2023-05-11 22:39:30,15.08846588,6.6e-05,53.2154,210.3297,73.245,286.8614,2.7517e-05,1.5e-06,0.0,0 STARLINK-4641,1 53730U 22107AG  23131.94410758  .00000150  00000-0  27517-4 0  9990,2 53730  53.2154 210.3297 0000660  73.2450 286.8614 15.08846588 38040,6917.86,95.437,540.182,539.269,0.0
53730.0,STARLINK-4641,PAYLOAD,2023-05-13 00:05:41,15.0883877,6.67e-05,53.2162,205.5724,71.4936,288.6129,1.2117e-05,-9.5e-07,0.0,0 STARLINK-4641,1 53730U 22107AG  23133.00395441 -.00000095  00000-0  12117-4 0  9999,2 53730  53.2162 205.5724 0000667  71.4936 288.6129 15.08838770 38209,6917.884,95.438,540.211,539.288,0.0
53730.0,STARLINK-4641,PAYLOAD,2023-05-13 11:13:22,15.08850771,7.29e-05,53.2152,203.4873,131.2381,228.8674,-3.833e-06,-3.49e-06,0.0,0 STARLINK-4641,1 53730U 22107AG  23133.46762523 -.00000349  00000-0 -38330-5 0  9997,2 53730  53.2152 203.4873 0000729 131.2381 228.8674 15.08850771 38271,6917.847,95.437,540.217,539.208,0.0
53730.0,STARLINK-4641,PAYLOAD,2023-05-14 12:39:33,15.08835965,7.83e-05,53.2153,198.7316,87.9446,272.1636,1.3856e-05,-6.7e-07,0.0,0 STARLINK-4641,1 53730U 22107AG  23134.52747626 -.00000067  00000-0  13856-4 0  9993,2 53730  53.2153 198.7316 0000783  87.9446 272.1636 15.08835965 38435,6917.893,95.438,540.299,539.216,0.0
53730.0,STARLINK-4641,PAYLOAD,2023-05-15 10:54:57,15.08840091,9.57e-05,53.2153,194.5689,106.9493,253.1604,3.6638e-05,2.95e-06,0.0,0 STARLINK-4641,1 53730U 22107AG  23135.45483444  .00000295  00000-0  36638-4 0  9996,2 53730  53.2153 194.5689 0000957 106.9493 253.1604 15.08840091 39171,6917.88,95.438,540.407,539.083,0.0
53730.0,STARLINK-4641,PAYLOAD,2023-05-15 20:27:17,15.08824443,7.91e-05,53.2148,192.7849,93.6145,266.4938,0.00016025,2.263e-05,0.0,0 STARLINK-4641,1 53730U 22107AG  23135.85228215  .00002263  00000-0  16025-3 0  9997,2 53730  53.2148 192.7849 0000791  93.6145 266.4938 15.08824443 38635,6917.928,95.439,540.34,539.246,0.0
53730.0,STARLINK-4641,PAYLOAD,2023-05-16 09:10:22,15.08833578,8.06e-05,53.2148,190.4055,83.3152,276.7932,4.2539e-05,3.89e-06,0.0,0 STARLINK-4641,1 53730U 22107AG  23136.38220134  .00000389  00000-0  42539-4 0  9995,2 53730  53.2148 190.4055 0000806  83.3152 276.7932 15.08833578 39313,6917.9,95.438,540.323,539.207,0.0
53730.0,STARLINK-4641,PAYLOAD,2023-05-16 20:18:04,15.08835968,8.15e-05,53.2147,188.3239,82.3052,277.8033,6.1835e-05,6.96e-06,0.0,0 STARLINK-4641,1 53730U 22107AG  23136.84588027  .00000696  00000-0  61835-4 0  9995,2 53730  53.2147 188.3239 0000815  82.3052 277.8033 15.08835968 38789,6917.893,95.438,540.322,539.194,0.0
53730.0,STARLINK-4641,PAYLOAD,2023-05-17 20:08:51,15.08834585,8.34e-05,53.2146,183.8635,85.7045,274.4043,1.7428e-05,-1e-07,0.0,0 STARLINK-4641,1 53730U 22107AG  23137.83948301 -.00000010  00000-0  17428-4 0  9990,2 53730  53.2146 183.8635 0000834  85.7045 274.4043 15.08834585 39530,6917.897,95.438,540.339,539.185,0.0
53730.0,STARLINK-4641,PAYLOAD,2023-05-18 12:02:42,15.08833784,9.08e-05,53.2151,180.8875,83.2997,276.8099,2.6232e-06,-2.46e-06,0.0,0 STARLINK-4641,1 53730U 22107AG  23138.50188600 -.00000246  00000-0  26232-5 0  9998,2 53730  53.2151 180.8875 0000908  83.2997 276.8099 15.08833784 39032,6917.899,95.438,540.393,539.136,0.0
53730.0,STARLINK-4641,PAYLOAD,2023-05-18 19:59:38,15.0883686,8.86e-05,53.2149,179.4012,84.1809,275.9284,2.23e-05,6.7e-07,0.0,0 STARLINK-4641,1 53730U 22107AG  23138.83308407  .00000067  00000-0  22300-4 0  9994,2 53730  53.2149 179.4012 0000886  84.1809 275.9284 15.08836860 39688,6917.89,95.438,540.368,539.142,0.0
53730.0,STARLINK-4641,PAYLOAD,2023-05-19 08:42:43,15.08842249,8.8e-05,53.215,177.0217,83.8756,276.2337,2.7324e-05,1.47e-06,0.0,0 STARLINK-4641,1 53730U 22107AG  23139.36300047  .00000147  00000-0  27324-4 0  9995,2 53730  53.2150 177.0217 0000880  83.8756 276.2337 15.08842249 39166,6917.874,95.437,540.347,539.13,0.0
53730.0,STARLINK-4641,PAYLOAD,2023-05-19 19:50:25,15.0884147,8.7e-05,53.2148,174.9404,82.1269,277.9822,3.5268e-05,2.74e-06,0.0,0 STARLINK-4641,1 53730U 22107AG  23139.82668000  .00000274  00000-0  35268-4 0  9999,2 53730  53.2148 174.9404 0000870  82.1269 277.9822 15.08841470 39833,6917.876,95.437,540.343,539.139,0.0
53730.0,STARLINK-4641,PAYLOAD,2023-05-20 19:41:11,15.08846167,8.46e-05,53.2147,170.4805,77.2633,282.8453,9.7936e-05,1.272e-05,0.0,0 STARLINK-4641,1 53730U 22107AG  23140.82027417  .00001272  00000-0  97936-4 0  9991,2 53730  53.2147 170.4805 0000846  77.2633 282.8453 15.08846167 39980,6917.862,95.437,540.312,539.141,0.0
53730.0,STARLINK-4641,PAYLOAD,2023-05-21 11:35:02,15.08847175,9.02e-05,53.2151,167.5062,82.7322,277.3773,5.8509e-05,6.44e-06,0.0,0 STARLINK-4641,1 53730U 22107AG  23141.48267233  .00000644  00000-0  58509-4 0  9991,2 53730  53.2151 167.5062 0000902  82.7322 277.3773 15.08847175 40083,6917.858,95.437,540.347,539.099,0.0
53730.0,STARLINK-4641,PAYLOAD,2023-05-22 01:53:32,15.08835428,9.78e-05,53.2145,164.8284,90.4205,269.6899,-5.72e-05,-1.198e-05,0.0,0 STARLINK-4641,1 53730U 22107AG  23142.07884312 -.00001198  00000-0 -57200-4 0  9994,2 53730  53.2145 164.8284 0000978  90.4205 269.6899 15.08835428 39574,6917.894,95.438,540.436,539.083,0.0
53730.0,STARLINK-4641,PAYLOAD,2023-05-22 08:15:04,15.08834861,9.79e-05,53.2146,163.6389,89.6476,270.4628,-5.7743e-05,-1.206e-05,0.0,0 STARLINK-4641,1 53730U 22107AG  23142.34380412 -.00001206  00000-0 -57743-4 0  9998,2 53730  53.2146 163.6389 0000979  89.6476 270.4628 15.08834861 40212,6917.896,95.438,540.438,539.084,0.0
53730.0,STARLINK-4641,PAYLOAD,2023-05-23 06:30:28,15.08836898,8.69e-05,53.2151,159.4751,84.8322,275.2769,-1.2399e-05,-4.85e-06,0.0,0 STARLINK-4641,1 53730U 22107AG  23143.27116333 -.00000485  00000-0 -12399-4 0  9996,2 53730  53.2151 159.4751 0000869  84.8322 275.2769 15.08836898 39757,6917.89,95.438,540.356,539.154,0.0
53730.0,STARLINK-4641,PAYLOAD,2023-05-23 17:38:10,15.08837219,8.17e-05,53.2147,157.3919,75.9737,284.1346,3.4146e-05,2.56e-06,0.0,0 STARLINK-4641,1 53730U 22107AG  23143.73484238  .00000256  00000-0  34146-4 0  9997,2 53730  53.2147 157.3919 0000817  75.9737 284.1346 15.08837219 40423,6917.889,95.438,540.319,539.189,0.0
53730.0,STARLINK-4641,PAYLOAD,2023-05-24 09:32:01,15.08834815,7.93e-05,53.2156,154.4225,85.0463,275.062,0.00010627,1.404e-05,0.0,0 STARLINK-4641,1 53730U 22107AG  23144.39724477  .00001404  00000-0  10627-3 0  9995,2 53730  53.2156 154.4225 0000793  85.0463 275.0620 15.08834815 39928,6917.896,95.438,540.31,539.213,0.0
53730.0,STARLINK-4641,PAYLOAD,2023-05-26 04:27:26,15.08838764,9.09e-05,53.2158,146.3929,77.7656,282.3438,2.719e-05,1.45e-06,0.0,0 STARLINK-4641,1 53730U 22107AG  23146.18572859  .00000145  00000-0  27190-4 0  9994,2 53730  53.2158 146.3929 0000909  77.7656 282.3438 15.08838764 40198,6917.884,95.438,540.378,539.12,0.0
53730.0,STARLINK-4641,PAYLOAD,2023-05-26 09:13:36,15.08839641,9.12e-05,53.2157,145.4987,76.7782,283.3312,3.0215e-05,1.93e-06,0.0,0 STARLINK-4641,1 53730U 22107AG  23146.38444777  .00000193  00000-0  30215-4 0  9998,2 53730  53.2157 145.4987 0000912  76.7782 283.3312 15.08839641 40821,6917.881,95.438,540.377,539.116,0.0
53730.0,STARLINK-4641,PAYLOAD,2023-05-27 05:53:37,15.08839355,8.41e-05,53.2153,141.6352,86.547,273.5618,3.6837e-05,2.99e-06,0.0,0 STARLINK-4641,1 53730U 22107AG  23147.24556743  .00000299  00000-0  36837-4 0  9994,2 53730  53.2153 141.6352 0000841  86.5470 273.5618 15.08839355 40355,6917.882,95.438,540.329,539.166,0.0
53730.0,STARLINK-4641,PAYLOAD,2023-05-27 17:01:18,15.08840267,8.41e-05,53.2153,139.5535,84.8399,275.2689,3.8196e-05,3.2e-06,0.0,0 STARLINK-4641,1 53730U 22107AG  23147.70924666  .00000320  00000-0  38196-4 0  9993,2 53730  53.2153 139.5535 0000841  84.8399 275.2689 15.08840267 41021,6917.88,95.438,540.326,539.163,0.0
53730.0,STARLINK-4641,PAYLOAD,2023-05-28 05:44:23,15.08842156,8.49e-05,53.2153,137.1743,86.3176,273.7913,3.9595e-05,3.43e-06,0.0,0 STARLINK-4641,1 53730U 22107AG  23148.23916521  .00000343  00000-0  39595-4 0  9992,2 53730  53.2153 137.1743 0000849  86.3176 273.7913 15.08842156 41105,6917.874,95.437,540.326,539.151,0.0
